[Satellite]
VERSION=1.1
NAME=GPS BIIF-4  (PRN 27)
NICKNAME=GPS BIIF-4  (PRN 27)
TLE1=1 39166U 13023A   18020.42833975 -.00000047  00000-0  00000+0 0  9997
TLE2=2 39166  55.9618  31.5655 0052841  17.7046 342.5163  2.00563516 34303
